{
  "type": "FeatureCollection",
  "features": [
    {
      "type": "Feature",
      "properties": {
        "norad_id": 66559,
        "name": "STARLINK-35419",
        "group": "last-30-days",
        "lat": -30.24639021193466,
        "lon": 142.21315671649597,
        "alt_km": 340.7673701349622,
        "timestamp": "2025-12-02T15:49:05.949677+00:00",
        "meta_object_name": "STARLINK-35419",
        "meta_object_id": "2025-268C",
        "meta_epoch": "2025-12-02T06:00:02.999808",
        "meta_mean_motion": 15.78344543,
        "meta_eccentricity": 0.00016624,
        "meta_inclination": 42.997,
        "meta_ra_of_asc_node": 183.4475,
        "meta_arg_of_pericenter": 273.1511,
        "meta_mean_anomaly": 233.1468,
        "meta_ephemeris_type": 0,
        "meta_classification_type": "U",
        "meta_norad_cat_id": 66559,
        "meta_element_set_no": 999,
        "meta_rev_at_epoch": 298,
        "meta_bstar": -0.010004785,
        "meta_mean_motion_dot": -0.01559067,
        "meta_mean_motion_ddot": 0,
        "tle_line1": "1 66559U 25268C   25336.25003472 -.01559067  00000+0 -10005-1 0  9997",
        "tle_line2": "2 66559  42.9970 183.4475 0001662 273.1511 233.1468 15.78344543  2981"
      },
      "geometry": {
        "type": "Point",
        "coordinates": [
          142.21315671649597,
          -30.24639021193466
        ]
      }
    },
    {
      "type": "Feature",
      "properties": {
        "norad_id": 66560,
        "name": "STARLINK-35411",
        "group": "last-30-days",
        "lat": -29.184826933452758,
        "lon": 144.12016807309942,
        "alt_km": 340.8209430693996,
        "timestamp": "2025-12-02T15:49:05.949687+00:00",
        "meta_object_name": "STARLINK-35411",
        "meta_object_id": "2025-268D",
        "meta_epoch": "2025-12-02T06:00:02.999808",
        "meta_mean_motion": 15.78332659,
        "meta_eccentricity": 0.00015868,
        "meta_inclination": 42.9973,
        "meta_ra_of_asc_node": 183.4425,
        "meta_arg_of_pericenter": 273.6926,
        "meta_mean_anomaly": 234.6032,
        "meta_ephemeris_type": 0,
        "meta_classification_type": "U",
        "meta_norad_cat_id": 66560,
        "meta_element_set_no": 999,
        "meta_rev_at_epoch": 298,
        "meta_bstar": -0.010080725,
        "meta_mean_motion_dot": -0.01568589,
        "meta_mean_motion_ddot": 0,
        "tle_line1": "1 66560U 25268D   25336.25003472 -.01568589  00000+0 -10081-1 0  9992",
        "tle_line2": "2 66560  42.9973 183.4425 0001586 273.6926 234.6032 15.78332659  2989"
      },
      "geometry": {
        "type": "Point",
        "coordinates": [
          144.12016807309942,
          -29.184826933452758
        ]
      }
    },
    {
      "type": "Feature",
      "properties": {
        "norad_id": 66561,
        "name": "STARLINK-35305",
        "group": "last-30-days",
        "lat": -26.966490160665046,
        "lon": 147.84313524659848,
        "alt_km": 340.86439672222514,
        "timestamp": "2025-12-02T15:49:05.949697+00:00",
        "meta_object_name": "STARLINK-35305",
        "meta_object_id": "2025-268E",
        "meta_epoch": "2025-12-02T06:00:02.999808",
        "meta_mean_motion": 15.78284276,
        "meta_eccentricity": 0.00015405,
        "meta_inclination": 42.9972,
        "meta_ra_of_asc_node": 183.4321,
        "meta_arg_of_pericenter": 277.6714,
        "meta_mean_anomaly": 234.6822,
        "meta_ephemeris_type": 0,
        "meta_classification_type": "U",
        "meta_norad_cat_id": 66561,
        "meta_element_set_no": 999,
        "meta_rev_at_epoch": 293,
        "meta_bstar": -0.010210234,
        "meta_mean_motion_dot": -0.01583051,
        "meta_mean_motion_ddot": 0,
        "tle_line1": "1 66561U 25268E   25336.25003472 -.01583051  00000+0 -10210-1 0  9998",
        "tle_line2": "2 66561  42.9972 183.4321 0001540 277.6714 234.6822 15.78284276  2936"
      },
      "geometry": {
        "type": "Point",
        "coordinates": [
          147.84313524659848,
          -26.966490160665046
        ]
      }
    },
    {
      "type": "Feature",
      "properties": {
        "norad_id": 66562,
        "name": "STARLINK-35579",
        "group": "last-30-days",
        "lat": -28.07366159694705,
        "lon": 146.02510257444445,
        "alt_km": 340.8789753610372,
        "timestamp": "2025-12-02T15:49:05.949707+00:00",
        "meta_object_name": "STARLINK-35579",
        "meta_object_id": "2025-268F",
        "meta_epoch": "2025-12-02T06:00:02.999808",
        "meta_mean_motion": 15.78298125,
        "meta_eccentricity": 0.00016163,
        "meta_inclination": 42.9972,
        "meta_ra_of_asc_node": 183.4369,
        "meta_arg_of_pericenter": 274.134,
        "meta_mean_anomaly": 236.2339,
        "meta_ephemeris_type": 0,
        "meta_classification_type": "U",
        "meta_norad_cat_id": 66562,
        "meta_element_set_no": 999,
        "meta_rev_at_epoch": 298,
        "meta_bstar": -0.010176261,
        "meta_mean_motion_dot": -0.01579391,
        "meta_mean_motion_ddot": 0,
        "tle_line1": "1 66562U 25268F   25336.25003472 -.01579391  00000+0 -10176-1 0  9992",
        "tle_line2": "2 66562  42.9972 183.4369 0001616 274.1340 236.2339 15.78298125  2984"
      },
      "geometry": {
        "type": "Point",
        "coordinates": [
          146.02510257444445,
          -28.07366159694705
        ]
      }
    },
    {
      "type": "Feature",
      "properties": {
        "norad_id": 66563,
        "name": "STARLINK-35437",
        "group": "last-30-days",
        "lat": -25.807704462196348,
        "lon": 149.66872696891434,
        "alt_km": 341.06020131069636,
        "timestamp": "2025-12-02T15:49:05.949717+00:00",
        "meta_object_name": "STARLINK-35437",
        "meta_object_id": "2025-268G",
        "meta_epoch": "2025-12-02T06:00:02.999808",
        "meta_mean_motion": 15.7825418,
        "meta_eccentricity": 0.0001548,
        "meta_inclination": 42.997,
        "meta_ra_of_asc_node": 183.4265,
        "meta_arg_of_pericenter": 270.0159,
        "meta_mean_anomaly": 244.3992,
        "meta_ephemeris_type": 0,
        "meta_classification_type": "U",
        "meta_norad_cat_id": 66563,
        "meta_element_set_no": 999,
        "meta_rev_at_epoch": 298,
        "meta_bstar": -0.010320038,
        "meta_mean_motion_dot": -0.01595951,
        "meta_mean_motion_ddot": 0,
        "tle_line1": "1 66563U 25268G   25336.25003472 -.01595951  00000+0 -10320-1 0  9994",
        "tle_line2": "2 66563  42.9970 183.4265 0001548 270.0159 244.3992 15.78254180  2983"
      },
      "geometry": {
        "type": "Point",
        "coordinates": [
          149.66872696891434,
          -25.807704462196348
        ]
      }
    },
    {
      "type": "Feature",
      "properties": {
        "norad_id": 66564,
        "name": "STARLINK-35358",
        "group": "last-30-days",
        "lat": -24.66144621378643,
        "lon": 151.40720565934095,
        "alt_km": 340.9022843373541,
        "timestamp": "2025-12-02T15:49:05.949729+00:00",
        "meta_object_name": "STARLINK-35358",
        "meta_object_id": "2025-268H",
        "meta_epoch": "2025-12-02T06:00:02.999808",
        "meta_mean_motion": 15.78245885,
        "meta_eccentricity": 0.00016446,
        "meta_inclination": 42.997,
        "meta_ra_of_asc_node": 183.4217,
        "meta_arg_of_pericenter": 275.1116,
        "meta_mean_anomaly": 241.2714,
        "meta_ephemeris_type": 0,
        "meta_classification_type": "U",
        "meta_norad_cat_id": 66564,
        "meta_element_set_no": 999,
        "meta_rev_at_epoch": 293,
        "meta_bstar": -0.010365418,
        "meta_mean_motion_dot": -0.01601599,
        "meta_mean_motion_ddot": 0,
        "tle_line1": "1 66564U 25268H   25336.25003472 -.01601599  00000+0 -10365-1 0  9990",
        "tle_line2": "2 66564  42.9970 183.4217 0001644 275.1116 241.2714 15.78245885  2932"
      },
      "geometry": {
        "type": "Point",
        "coordinates": [
          151.40720565934095,
          -24.66144621378643
        ]
      }
    },
    {
      "type": "Feature",
      "properties": {
        "norad_id": 66565,
        "name": "STARLINK-35893",
        "group": "last-30-days",
        "lat": -23.487114352457727,
        "lon": 153.12575669896444,
        "alt_km": 340.9521765010195,
        "timestamp": "2025-12-02T15:49:05.949739+00:00",
        "meta_object_name": "STARLINK-35893",
        "meta_object_id": "2025-268J",
        "meta_epoch": "2025-12-02T06:00:02.999808",
        "meta_mean_motion": 15.78227895,
        "meta_eccentricity": 0.0001605,
        "meta_inclination": 42.9973,
        "meta_ra_of_asc_node": 183.4166,
        "meta_arg_of_pericenter": 273.4151,
        "meta_mean_anomaly": 244.9605,
        "meta_ephemeris_type": 0,
        "meta_classification_type": "U",
        "meta_norad_cat_id": 66565,
        "meta_element_set_no": 999,
        "meta_rev_at_epoch": 298,
        "meta_bstar": -0.010388224,
        "meta_mean_motion_dot": -0.01603483,
        "meta_mean_motion_ddot": 0,
        "tle_line1": "1 66565U 25268J   25336.25003472 -.01603483  00000+0 -10388-1 0  9990",
        "tle_line2": "2 66565  42.9973 183.4166 0001605 273.4151 244.9605 15.78227895  2981"
      },
      "geometry": {
        "type": "Point",
        "coordinates": [
          153.12575669896444,
          -23.487114352457727
        ]
      }
    }
  ]
}